CYGNUS NG-23            
1 65616U 25208A   25346.86355306  .00014033  00000+0  25741-3 0  9999
2 65616  51.6304 141.8664 0003245 240.6311 119.4354 15.49550036   225
DRAGONFLY               
1 65729U 98067XH  25346.67493080  .00219639  00000+0  16127-2 0  9994
2 65729  51.6248 136.0967 0006787 276.9077  83.1148 15.71879709 13154
1998-067XK              
1 65731U 98067XK  25346.67040746  .00121277  00000+0  11639-2 0  9997
2 65731  51.6278 137.5837 0005064 245.5943 114.4524 15.65714670 13135
RSP-03                  
1 65732U 98067XL  25346.80283155  .00161855  00000+0  13718-2 0  9992
2 65732  51.6253 136.2083 0005762 249.7501 110.2876 15.68628297 13179
GHS-01                  
1 65733U 98067XM  25346.69021224  .00264493  00000+0  17047-2 0  9998
2 65733  51.6272 135.4559 0007160 280.4692  79.5500 15.74787819 13171
YOTSUBA-KULOVER         
1 65941U 98067XN  25346.71267083  .00088324  00000+0  10887-2 0  9999
2 65941  51.6283 140.1144 0001436 251.0528 109.0310 15.59446006  9850
BOTAN                   
1 65942U 98067XP  25346.84619684  .00139962  00000+0  14970-2 0  9994
2 65942  51.6286 138.7562 0003106 238.0921 121.9771 15.62906067  9888
E-KAGAKU-1              
1 65943U 98067XQ  25344.27717868  .00100705  00000+0  12589-2 0  9990
2 65943  51.6298 152.3458 0005250 191.2269 168.8608 15.59004320  9476
HRC MONOBLOCK CAMERA    
1 66052U 98067XR  25346.97268030  .00050598  00000+0  76587-3 0  9996
2 66052  51.6292 140.3460 0003311 185.3719 174.7237 15.54154982  8874
HTV-X1                  
1 66174U 25241A   25346.86355306  .00014033  00000+0  25741-3 0  9996
2 66174  51.6304 141.8664 0003245 240.6311 119.4354 15.49550036   517
SZ-21 MODULE            
1 66515U 25246C   25346.79490263  .00032837  00000+0  36065-3 0  9997
2 66515  41.4775  15.7097 0006306 260.6775  99.3351 15.62483203  4457
SHENZHOU-22             
1 66645U 25272A   25346.97088639  .00026417  00000+0  33033-3 0  9999
2 66645  41.4684  15.3046 0008245  32.5257 327.6088 15.59178060263577
