CCSDS_OMM_VERS = 2.0
CREATION_DATE  = 
ORIGINATOR     = 

OBJECT_NAME    = CYGNUS NG-23
OBJECT_ID      = 2025-208A
CENTER_NAME    = EARTH
REF_FRAME      = TEME
TIME_SYSTEM    = UTC
MEAN_ELEMENT_THEORY = SGP/SGP4

EPOCH          = 2025-12-12T20:43:30.984384
MEAN_MOTION    = 15.49550036
ECCENTRICITY   = .00032451
INCLINATION    = 51.6304
RA_OF_ASC_NODE = 141.8664
ARG_OF_PERICENTER = 240.6311
MEAN_ANOMALY   = 119.4354

EPHEMERIS_TYPE = 0
CLASSIFICATION_TYPE = U
NORAD_CAT_ID   = 65616
ELEMENT_SET_NO = 999
REV_AT_EPOCH   = 22
BSTAR          = .25741225E-3
MEAN_MOTION_DOT = .14033E-3
MEAN_MOTION_DDOT = 0

CCSDS_OMM_VERS = 2.0
CREATION_DATE  = 
ORIGINATOR     = 

OBJECT_NAME    = DRAGONFLY
OBJECT_ID      = 1998-067XH
CENTER_NAME    = EARTH
REF_FRAME      = TEME
TIME_SYSTEM    = UTC
MEAN_ELEMENT_THEORY = SGP/SGP4

EPOCH          = 2025-12-12T16:11:54.021120
MEAN_MOTION    = 15.71879709
ECCENTRICITY   = .0006787
INCLINATION    = 51.6248
RA_OF_ASC_NODE = 136.0967
ARG_OF_PERICENTER = 276.9077
MEAN_ANOMALY   = 83.1148

EPHEMERIS_TYPE = 0
CLASSIFICATION_TYPE = U
NORAD_CAT_ID   = 65729
ELEMENT_SET_NO = 999
REV_AT_EPOCH   = 1315
BSTAR          = .1612676E-2
MEAN_MOTION_DOT = .219639E-2
MEAN_MOTION_DDOT = 0

CCSDS_OMM_VERS = 2.0
CREATION_DATE  = 
ORIGINATOR     = 

OBJECT_NAME    = 1998-067XK
OBJECT_ID      = 1998-067XK
CENTER_NAME    = EARTH
REF_FRAME      = TEME
TIME_SYSTEM    = UTC
MEAN_ELEMENT_THEORY = SGP/SGP4

EPOCH          = 2025-12-12T16:05:23.204544
MEAN_MOTION    = 15.65714670
ECCENTRICITY   = .00050644
INCLINATION    = 51.6278
RA_OF_ASC_NODE = 137.5837
ARG_OF_PERICENTER = 245.5943
MEAN_ANOMALY   = 114.4524

EPHEMERIS_TYPE = 0
CLASSIFICATION_TYPE = U
NORAD_CAT_ID   = 65731
ELEMENT_SET_NO = 999
REV_AT_EPOCH   = 1313
BSTAR          = .11638713E-2
MEAN_MOTION_DOT = .121277E-2
MEAN_MOTION_DDOT = 0

CCSDS_OMM_VERS = 2.0
CREATION_DATE  = 
ORIGINATOR     = 

OBJECT_NAME    = RSP-03
OBJECT_ID      = 1998-067XL
CENTER_NAME    = EARTH
REF_FRAME      = TEME
TIME_SYSTEM    = UTC
MEAN_ELEMENT_THEORY = SGP/SGP4

EPOCH          = 2025-12-12T19:16:04.645920
MEAN_MOTION    = 15.68628297
ECCENTRICITY   = .00057622
INCLINATION    = 51.6253
RA_OF_ASC_NODE = 136.2083
ARG_OF_PERICENTER = 249.7501
MEAN_ANOMALY   = 110.2876

EPHEMERIS_TYPE = 0
CLASSIFICATION_TYPE = U
NORAD_CAT_ID   = 65732
ELEMENT_SET_NO = 999
REV_AT_EPOCH   = 1317
BSTAR          = .13717805E-2
MEAN_MOTION_DOT = .161855E-2
MEAN_MOTION_DDOT = 0

CCSDS_OMM_VERS = 2.0
CREATION_DATE  = 
ORIGINATOR     = 

OBJECT_NAME    = GHS-01
OBJECT_ID      = 1998-067XM
CENTER_NAME    = EARTH
REF_FRAME      = TEME
TIME_SYSTEM    = UTC
MEAN_ELEMENT_THEORY = SGP/SGP4

EPOCH          = 2025-12-12T16:33:54.337536
MEAN_MOTION    = 15.74787819
ECCENTRICITY   = .00071608
INCLINATION    = 51.6272
RA_OF_ASC_NODE = 135.4559
ARG_OF_PERICENTER = 280.4692
MEAN_ANOMALY   = 79.5500

EPHEMERIS_TYPE = 0
CLASSIFICATION_TYPE = U
NORAD_CAT_ID   = 65733
ELEMENT_SET_NO = 999
REV_AT_EPOCH   = 1317
BSTAR          = .17046622E-2
MEAN_MOTION_DOT = .264493E-2
MEAN_MOTION_DDOT = 0

CCSDS_OMM_VERS = 2.0
CREATION_DATE  = 
ORIGINATOR     = 

OBJECT_NAME    = YOTSUBA-KULOVER
OBJECT_ID      = 1998-067XN
CENTER_NAME    = EARTH
REF_FRAME      = TEME
TIME_SYSTEM    = UTC
MEAN_ELEMENT_THEORY = SGP/SGP4

EPOCH          = 2025-12-12T17:06:14.759712
MEAN_MOTION    = 15.59446006
ECCENTRICITY   = .00014368
INCLINATION    = 51.6283
RA_OF_ASC_NODE = 140.1144
ARG_OF_PERICENTER = 251.0528
MEAN_ANOMALY   = 109.0310

EPHEMERIS_TYPE = 0
CLASSIFICATION_TYPE = U
NORAD_CAT_ID   = 65941
ELEMENT_SET_NO = 999
REV_AT_EPOCH   = 985
BSTAR          = .10887286E-2
MEAN_MOTION_DOT = .88324E-3
MEAN_MOTION_DDOT = 0

CCSDS_OMM_VERS = 2.0
CREATION_DATE  = 
ORIGINATOR     = 

OBJECT_NAME    = BOTAN
OBJECT_ID      = 1998-067XP
CENTER_NAME    = EARTH
REF_FRAME      = TEME
TIME_SYSTEM    = UTC
MEAN_ELEMENT_THEORY = SGP/SGP4

EPOCH          = 2025-12-12T20:18:31.406976
MEAN_MOTION    = 15.62906067
ECCENTRICITY   = .00031064
INCLINATION    = 51.6286
RA_OF_ASC_NODE = 138.7562
ARG_OF_PERICENTER = 238.0921
MEAN_ANOMALY   = 121.9771

EPHEMERIS_TYPE = 0
CLASSIFICATION_TYPE = U
NORAD_CAT_ID   = 65942
ELEMENT_SET_NO = 999
REV_AT_EPOCH   = 988
BSTAR          = .14970071E-2
MEAN_MOTION_DOT = .139962E-2
MEAN_MOTION_DDOT = 0

CCSDS_OMM_VERS = 2.0
CREATION_DATE  = 
ORIGINATOR     = 

OBJECT_NAME    = E-KAGAKU-1
OBJECT_ID      = 1998-067XQ
CENTER_NAME    = EARTH
REF_FRAME      = TEME
TIME_SYSTEM    = UTC
MEAN_ELEMENT_THEORY = SGP/SGP4

EPOCH          = 2025-12-10T06:39:08.237952
MEAN_MOTION    = 15.59004320
ECCENTRICITY   = .00052507
INCLINATION    = 51.6298
RA_OF_ASC_NODE = 152.3458
ARG_OF_PERICENTER = 191.2269
MEAN_ANOMALY   = 168.8608

EPHEMERIS_TYPE = 0
CLASSIFICATION_TYPE = U
NORAD_CAT_ID   = 65943
ELEMENT_SET_NO = 999
REV_AT_EPOCH   = 947
BSTAR          = .12588803E-2
MEAN_MOTION_DOT = .100705E-2
MEAN_MOTION_DDOT = 0

CCSDS_OMM_VERS = 2.0
CREATION_DATE  = 
ORIGINATOR     = 

OBJECT_NAME    = HRC MONOBLOCK CAMERA
OBJECT_ID      = 1998-067XR
CENTER_NAME    = EARTH
REF_FRAME      = TEME
TIME_SYSTEM    = UTC
MEAN_ELEMENT_THEORY = SGP/SGP4

EPOCH          = 2025-12-12T23:20:39.577920
MEAN_MOTION    = 15.54154982
ECCENTRICITY   = .00033119
INCLINATION    = 51.6292
RA_OF_ASC_NODE = 140.3460
ARG_OF_PERICENTER = 185.3719
MEAN_ANOMALY   = 174.7237

EPHEMERIS_TYPE = 0
CLASSIFICATION_TYPE = U
NORAD_CAT_ID   = 66052
ELEMENT_SET_NO = 999
REV_AT_EPOCH   = 887
BSTAR          = .76587258E-3
MEAN_MOTION_DOT = .50598E-3
MEAN_MOTION_DDOT = 0

CCSDS_OMM_VERS = 2.0
CREATION_DATE  = 
ORIGINATOR     = 

OBJECT_NAME    = HTV-X1
OBJECT_ID      = 2025-241A
CENTER_NAME    = EARTH
REF_FRAME      = TEME
TIME_SYSTEM    = UTC
MEAN_ELEMENT_THEORY = SGP/SGP4

EPOCH          = 2025-12-12T20:43:30.984384
MEAN_MOTION    = 15.49550036
ECCENTRICITY   = .00032451
INCLINATION    = 51.6304
RA_OF_ASC_NODE = 141.8664
ARG_OF_PERICENTER = 240.6311
MEAN_ANOMALY   = 119.4354

EPHEMERIS_TYPE = 0
CLASSIFICATION_TYPE = U
NORAD_CAT_ID   = 66174
ELEMENT_SET_NO = 999
REV_AT_EPOCH   = 51
BSTAR          = .25741225E-3
MEAN_MOTION_DOT = .14033E-3
MEAN_MOTION_DDOT = 0

CCSDS_OMM_VERS = 2.0
CREATION_DATE  = 
ORIGINATOR     = 

OBJECT_NAME    = SZ-21 MODULE
OBJECT_ID      = 2025-246C
CENTER_NAME    = EARTH
REF_FRAME      = TEME
TIME_SYSTEM    = UTC
MEAN_ELEMENT_THEORY = SGP/SGP4

EPOCH          = 2025-12-12T19:04:39.587232
MEAN_MOTION    = 15.62483203
ECCENTRICITY   = .00063063
INCLINATION    = 41.4775
RA_OF_ASC_NODE = 15.7097
ARG_OF_PERICENTER = 260.6775
MEAN_ANOMALY   = 99.3351

EPHEMERIS_TYPE = 0
CLASSIFICATION_TYPE = U
NORAD_CAT_ID   = 66515
ELEMENT_SET_NO = 999
REV_AT_EPOCH   = 445
BSTAR          = .36064759E-3
MEAN_MOTION_DOT = .32837E-3
MEAN_MOTION_DDOT = 0

CCSDS_OMM_VERS = 2.0
CREATION_DATE  = 
ORIGINATOR     = 

OBJECT_NAME    = SHENZHOU-22
OBJECT_ID      = 2025-272A
CENTER_NAME    = EARTH
REF_FRAME      = TEME
TIME_SYSTEM    = UTC
MEAN_ELEMENT_THEORY = SGP/SGP4

EPOCH          = 2025-12-12T23:18:04.584096
MEAN_MOTION    = 15.59178060
ECCENTRICITY   = .00082454
INCLINATION    = 41.4684
RA_OF_ASC_NODE = 15.3046
ARG_OF_PERICENTER = 32.5257
MEAN_ANOMALY   = 327.6088

EPHEMERIS_TYPE = 0
CLASSIFICATION_TYPE = U
NORAD_CAT_ID   = 66645
ELEMENT_SET_NO = 999
REV_AT_EPOCH   = 26357
BSTAR          = .33032775E-3
MEAN_MOTION_DOT = .26417E-3
MEAN_MOTION_DDOT = 0

